Orbit 1
Satellite Number: 99999
Line 1: 1 99999U 20042A   26027.13434208  .00000000  00000-0  10000-4 0  9990
Line 2: 2 99999  97.6013 244.5514 0002658  62.4476 279.1176 15.06639603  1001
Keplerian Elements:
  Semi-major axis (a): 6921.604227 km
  Eccentricity (e): 0.000266
  Inclination (i): 97.601300 deg
  Argument of Perigee (ω): 62.447600 deg
  RAAN (Ω): 244.551400 deg
--------------------------------------------------
Orbit 2
Satellite Number: 64845
Line 1: 1 64845U 25152D   26027.15335179  .00006725  00000-0  46978-3 0  9990
Line 2: 2 64845  97.6032 244.5089 0002031 100.2135 259.9321 15.05652247 29162
Keplerian Elements:
  Semi-major axis (a): 6924.632581 km
  Eccentricity (e): 0.000203
  Inclination (i): 97.603200 deg
  Argument of Perigee (ω): 100.213500 deg
  RAAN (Ω): 244.508900 deg
--------------------------------------------------
Orbit 3
Satellite Number: 64853
Line 1: 1 64853U 25152M   26027.14781613  .00010219  00000-0  71126-3 0  9992
Line 2: 2 64853  97.6033 244.5153 0002661  76.9505 283.2019 15.05656339 29163
Keplerian Elements:
  Semi-major axis (a): 6924.620028 km
  Eccentricity (e): 0.000266
  Inclination (i): 97.603300 deg
  Argument of Perigee (ω): 76.950500 deg
  RAAN (Ω): 244.515300 deg
--------------------------------------------------
Orbit 4
Satellite Number: 64860
Line 1: 1 64860U 25152U   26027.15058631  .00004531  00000-0  31797-3 0  9998
Line 2: 2 64860  97.6014 244.5281 0002306  70.7975 289.3501 15.05653619 29162
Keplerian Elements:
  Semi-major axis (a): 6924.628292 km
  Eccentricity (e): 0.000231
  Inclination (i): 97.601400 deg
  Argument of Perigee (ω): 70.797500 deg
  RAAN (Ω): 244.528100 deg
--------------------------------------------------
